[{"OBJECT_NAME":"STRIX-BETA","OBJECT_ID":"2022-020A","EPOCH":"2026-03-09T19:26:29.889888","MEAN_MOTION":15.76952977,"ECCENTRICITY":0.00056276,"INCLINATION":97.5704,"RA_OF_ASC_NODE":163.502,"ARG_OF_PERICENTER":250.1372,"MEAN_ANOMALY":109.9287,"EPHEMERIS_TYPE":0,"CLASSIFICATION_TYPE":"U","NORAD_CAT_ID":51847,"ELEMENT_SET_NO":999,"REV_AT_EPOCH":22299,"BSTAR":0.0015320612,"MEAN_MOTION_DOT":0.0025428,"MEAN_MOTION_DDOT":0},{"OBJECT_NAME":"STARLINK-36352","OBJECT_ID":"2026-016G","EPOCH":"2026-03-09T16:20:23.214336","MEAN_MOTION":15.75202999,"ECCENTRICITY":0.00018531,"INCLINATION":97.2836,"RA_OF_ASC_NODE":129.1934,"ARG_OF_PERICENTER":70.8878,"MEAN_ANOMALY":289.2588,"EPHEMERIS_TYPE":0,"CLASSIFICATION_TYPE":"U","NORAD_CAT_ID":67567,"ELEMENT_SET_NO":999,"REV_AT_EPOCH":680,"BSTAR":0.0014643399,"MEAN_MOTION_DOT":0.00224247,"MEAN_MOTION_DDOT":0}]
